{
    "links": {
        "self": "http://www.neowsapp.com/rest/v1/neo/3827340?api_key=iIulBulltgU6a56xZRHN4H3l9WmuAYTsLGpBGhQ2"
    },
    "id": "3827340",
    "neo_reference_id": "3827340",
    "name": "(2018 RA3)",
    "designation": "2018 RA3",
    "nasa_jpl_url": "http://ssd.jpl.nasa.gov/sbdb.cgi?sstr=3827340",
    "absolute_magnitude_h": 24.6,
    "estimated_diameter": {
        "kilometers": {
            "estimated_diameter_min": 0.0319561887,
            "estimated_diameter_max": 0.0714562102
        },
        "meters": {
            "estimated_diameter_min": 31.9561886721,
            "estimated_diameter_max": 71.4562101727
        },
        "miles": {
            "estimated_diameter_min": 0.0198566489,
            "estimated_diameter_max": 0.0444008168
        },
        "feet": {
            "estimated_diameter_min": 104.8431420431,
            "estimated_diameter_max": 234.436392583
        }
    },
    "is_potentially_hazardous_asteroid": false,
    "close_approach_data": [
        {
            "close_approach_date": "2018-03-06",
            "close_approach_date_full": "2018-Mar-06 23:10",
            "epoch_date_close_approach": 1520377800000,
            "relative_velocity": {
                "kilometers_per_second": "18.1586177138",
                "kilometers_per_hour": "65371.0237695436",
                "miles_per_hour": "40619.0119639144"
            },
            "miss_distance": {
                "astronomical": "0.2082046457",
                "lunar": "80.9916071773",
                "kilometers": "31146971.520824659",
                "miles": "19353830.6539879342"
            },
            "orbiting_body": "Earth"
        },
        {
            "close_approach_date": "2018-09-02",
            "close_approach_date_full": "2018-Sep-02 21:15",
            "epoch_date_close_approach": 1535922900000,
            "relative_velocity": {
                "kilometers_per_second": "18.7272486639",
                "kilometers_per_hour": "67418.0951899187",
                "miles_per_hour": "41890.9825362025"
            },
            "miss_distance": {
                "astronomical": "0.0808092119",
                "lunar": "31.4347834291",
                "kilometers": "12088885.976618653",
                "miles": "7511685.4243892914"
            },
            "orbiting_body": "Earth"
        }
    ],
    "orbital_data": {
        "orbit_id": "4",
        "orbit_determination_date": "2019-01-19 07:17:22",
        "first_observation_date": "2018-09-08",
        "last_observation_date": "2018-09-13",
        "data_arc_in_days": 5,
        "observations_used": 29,
        "orbit_uncertainty": "8",
        "minimum_orbit_intersection": ".0674117",
        "jupiter_tisserand_invariant": "5.311",
        "epoch_osculation": "2458370.5",
        "eccentricity": ".169185245451741",
        "semi_major_axis": "1.138876152160288",
        "inclination": "36.40883905340855",
        "ascending_node_longitude": "342.5149998892139",
        "orbital_period": "443.9286512407402",
        "perihelion_distance": ".9461951108179151",
        "perihelion_argument": "278.6901221693805",
        "aphelion_distance": "1.33155719350266",
        "perihelion_time": "2458287.395184542932",
        "mean_anomaly": "67.39311256646116",
        "mean_motion": ".8109411253223524",
        "equinox": "J2000",
        "orbit_class": {
            "orbit_class_type": "APO",
            "orbit_class_description": "Near-Earth asteroid orbits which cross the Earth’s orbit similar to that of 1862 Apollo",
            "orbit_class_range": "a (semi-major axis) > 1.0 AU; q (perihelion) < 1.017 AU"
        }
    },
    "is_sentry_object": false
}